{
  "type": "FeatureCollection",
  "features": [
    {
      "type": "Feature",
      "properties": {
        "norad_id": 66435,
        "name": "STARLINK-35502",
        "group": "last-30-days",
        "lat": -29.244300405177082,
        "lon": -49.01328675892852,
        "alt_km": 417.06033056508477,
        "timestamp": "2025-12-04T17:48:38.962679+00:00",
        "meta_object_name": "STARLINK-35502",
        "meta_object_id": "2025-259P",
        "meta_epoch": "2025-12-04T08:00:01.999872",
        "meta_mean_motion": 15.50583793,
        "meta_eccentricity": 0.00014326,
        "meta_inclination": 43.0006,
        "meta_ra_of_asc_node": 96.4486,
        "meta_arg_of_pericenter": 262.6641,
        "meta_mean_anomaly": 198.6118,
        "meta_ephemeris_type": 0,
        "meta_classification_type": "U",
        "meta_norad_cat_id": 66435,
        "meta_element_set_no": 999,
        "meta_rev_at_epoch": 492,
        "meta_bstar": -0.0010058742,
        "meta_mean_motion_dot": -0.00058919,
        "meta_mean_motion_ddot": 0,
        "tle_line1": "1 66435U 25259P   25338.33335648 -.00058919  00000+0 -10059-2 0  9993",
        "tle_line2": "2 66435  43.0006  96.4486 0001432 262.6641 198.6118 15.50583793  4928"
      },
      "geometry": {
        "type": "Point",
        "coordinates": [
          -49.01328675892852,
          -29.244300405177082
        ]
      }
    },
    {
      "type": "Feature",
      "properties": {
        "norad_id": 66436,
        "name": "STARLINK-35501",
        "group": "last-30-days",
        "lat": -31.282333869951604,
        "lon": -45.26053165428697,
        "alt_km": 416.96023225406134,
        "timestamp": "2025-12-04T17:48:38.962688+00:00",
        "meta_object_name": "STARLINK-35501",
        "meta_object_id": "2025-259Q",
        "meta_epoch": "2025-12-04T08:00:01.999872",
        "meta_mean_motion": 15.50596765,
        "meta_eccentricity": 0.00016746,
        "meta_inclination": 43.0005,
        "meta_ra_of_asc_node": 96.4374,
        "meta_arg_of_pericenter": 256.9412,
        "meta_mean_anomaly": 208.1673,
        "meta_ephemeris_type": 0,
        "meta_classification_type": "U",
        "meta_norad_cat_id": 66436,
        "meta_element_set_no": 999,
        "meta_rev_at_epoch": 492,
        "meta_bstar": -0.0013378338,
        "meta_mean_motion_dot": -0.00078099,
        "meta_mean_motion_ddot": 0,
        "tle_line1": "1 66436U 25259Q   25338.33335648 -.00078099  00000+0 -13378-2 0  9992",
        "tle_line2": "2 66436  43.0005  96.4374 0001674 256.9412 208.1673 15.50596765  4920"
      },
      "geometry": {
        "type": "Point",
        "coordinates": [
          -45.26053165428697,
          -31.282333869951604
        ]
      }
    },
    {
      "type": "Feature",
      "properties": {
        "norad_id": 66437,
        "name": "STARLINK-35474",
        "group": "last-30-days",
        "lat": -32.2558489514617,
        "lon": -43.33029688869072,
        "alt_km": 417.2192338291661,
        "timestamp": "2025-12-04T17:48:38.962698+00:00",
        "meta_object_name": "STARLINK-35474",
        "meta_object_id": "2025-259R",
        "meta_epoch": "2025-12-04T08:00:01.999872",
        "meta_mean_motion": 15.50586681,
        "meta_eccentricity": 0.00013853,
        "meta_inclination": 43.0005,
        "meta_ra_of_asc_node": 96.4328,
        "meta_arg_of_pericenter": 262.5754,
        "meta_mean_anomaly": 204.4523,
        "meta_ephemeris_type": 0,
        "meta_classification_type": "U",
        "meta_norad_cat_id": 66437,
        "meta_element_set_no": 999,
        "meta_rev_at_epoch": 492,
        "meta_bstar": -0.0010965123,
        "meta_mean_motion_dot": -0.00064161,
        "meta_mean_motion_ddot": 0,
        "tle_line1": "1 66437U 25259R   25338.33335648 -.00064161  00000+0 -10965-2 0  9997",
        "tle_line2": "2 66437  43.0005  96.4328 0001385 262.5754 204.4523 15.50586681  4920"
      },
      "geometry": {
        "type": "Point",
        "coordinates": [
          -43.33029688869072,
          -32.2558489514617
        ]
      }
    },
    {
      "type": "Feature",
      "properties": {
        "norad_id": 66438,
        "name": "STARLINK-34681",
        "group": "last-30-days",
        "lat": -33.19727620294267,
        "lon": -41.362942531205576,
        "alt_km": 417.2533231810921,
        "timestamp": "2025-12-04T17:48:38.962708+00:00",
        "meta_object_name": "STARLINK-34681",
        "meta_object_id": "2025-259S",
        "meta_epoch": "2025-12-04T08:00:01.999872",
        "meta_mean_motion": 15.50584235,
        "meta_eccentricity": 0.00013969,
        "meta_inclination": 43.0004,
        "meta_ra_of_asc_node": 96.4281,
        "meta_arg_of_pericenter": 264.8084,
        "meta_mean_anomaly": 204.1262,
        "meta_ephemeris_type": 0,
        "meta_classification_type": "U",
        "meta_norad_cat_id": 66438,
        "meta_element_set_no": 999,
        "meta_rev_at_epoch": 482,
        "meta_bstar": -0.00090875088,
        "meta_mean_motion_dot": -0.00053301,
        "meta_mean_motion_ddot": 0,
        "tle_line1": "1 66438U 25259S   25338.33335648 -.00053301  00000+0 -90875-3 0  9991",
        "tle_line2": "2 66438  43.0004  96.4281 0001396 264.8084 204.1262 15.50584235  4820"
      },
      "geometry": {
        "type": "Point",
        "coordinates": [
          -41.362942531205576,
          -33.19727620294267
        ]
      }
    },
    {
      "type": "Feature",
      "properties": {
        "norad_id": 66439,
        "name": "STARLINK-35327",
        "group": "last-30-days",
        "lat": -30.276210585960595,
        "lon": -47.15586248477614,
        "alt_km": 417.1416137477845,
        "timestamp": "2025-12-04T17:48:38.962722+00:00",
        "meta_object_name": "STARLINK-35327",
        "meta_object_id": "2025-259T",
        "meta_epoch": "2025-12-04T08:00:01.999872",
        "meta_mean_motion": 15.505896,
        "meta_eccentricity": 0.00014351,
        "meta_inclination": 43.0006,
        "meta_ra_of_asc_node": 96.4447,
        "meta_arg_of_pericenter": 264.802,
        "meta_mean_anomaly": 198.3928,
        "meta_ephemeris_type": 0,
        "meta_classification_type": "U",
        "meta_norad_cat_id": 66439,
        "meta_element_set_no": 999,
        "meta_rev_at_epoch": 492,
        "meta_bstar": -0.0012354999,
        "meta_mean_motion_dot": -0.00072185,
        "meta_mean_motion_ddot": 0,
        "tle_line1": "1 66439U 25259T   25338.33335648 -.00072185  00000+0 -12355-2 0  9999",
        "tle_line2": "2 66439  43.0006  96.4447 0001435 264.8020 198.3928 15.50589600  4926"
      },
      "geometry": {
        "type": "Point",
        "coordinates": [
          -47.15586248477614,
          -30.276210585960595
        ]
      }
    },
    {
      "type": "Feature",
      "properties": {
        "norad_id": 66440,
        "name": "STARLINK-35405",
        "group": "last-30-days",
        "lat": -34.116092844469804,
        "lon": -39.33187365649378,
        "alt_km": 417.22546952752145,
        "timestamp": "2025-12-04T17:48:38.962733+00:00",
        "meta_object_name": "STARLINK-35405",
        "meta_object_id": "2025-259U",
        "meta_epoch": "2025-12-04T08:00:01.999872",
        "meta_mean_motion": 15.5058965,
        "meta_eccentricity": 0.00014821,
        "meta_inclination": 43.0005,
        "meta_ra_of_asc_node": 96.4245,
        "meta_arg_of_pericenter": 258.5339,
        "meta_mean_anomaly": 212.3355,
        "meta_ephemeris_type": 0,
        "meta_classification_type": "U",
        "meta_norad_cat_id": 66440,
        "meta_element_set_no": 999,
        "meta_rev_at_epoch": 492,
        "meta_bstar": -0.001339558,
        "meta_mean_motion_dot": -0.00078177,
        "meta_mean_motion_ddot": 0,
        "tle_line1": "1 66440U 25259U   25338.33335648 -.00078177  00000+0 -13396-2 0  9994",
        "tle_line2": "2 66440  43.0005  96.4245 0001482 258.5339 212.3355 15.50589650  4924"
      },
      "geometry": {
        "type": "Point",
        "coordinates": [
          -39.33187365649378,
          -34.116092844469804
        ]
      }
    },
    {
      "type": "Feature",
      "properties": {
        "norad_id": 66441,
        "name": "STARLINK-35426",
        "group": "last-30-days",
        "lat": -34.99338380501278,
        "lon": -37.27621118721943,
        "alt_km": 417.2531093972384,
        "timestamp": "2025-12-04T17:48:38.962743+00:00",
        "meta_object_name": "STARLINK-35426",
        "meta_object_id": "2025-259V",
        "meta_epoch": "2025-12-04T08:00:01.999872",
        "meta_mean_motion": 15.50589803,
        "meta_eccentricity": 0.00014968,
        "meta_inclination": 43.0004,
        "meta_ra_of_asc_node": 96.4188,
        "meta_arg_of_pericenter": 260.4877,
        "meta_mean_anomaly": 212.2918,
        "meta_ephemeris_type": 0,
        "meta_classification_type": "U",
        "meta_norad_cat_id": 66441,
        "meta_element_set_no": 999,
        "meta_rev_at_epoch": 492,
        "meta_bstar": -0.0012506055,
        "meta_mean_motion_dot": -0.00073056,
        "meta_mean_motion_ddot": 0,
        "tle_line1": "1 66441U 25259V   25338.33335648 -.00073056  00000+0 -12506-2 0  9998",
        "tle_line2": "2 66441  43.0004  96.4188 0001496 260.4877 212.2918 15.50589803  4928"
      },
      "geometry": {
        "type": "Point",
        "coordinates": [
          -37.27621118721943,
          -34.99338380501278
        ]
      }
    }
  ]
}